[{"OBJECT_NAME":"YAOGAN-43 02F","OBJECT_ID":"2024-156F","EPOCH":"2026-03-09T13:00:32.217984","MEAN_MOTION":15.22951134,"ECCENTRICITY":0.00011647,"INCLINATION":34.9922,"RA_OF_ASC_NODE":104.6026,"ARG_OF_PERICENTER":214.3893,"MEAN_ANOMALY":145.6747,"EPHEMERIS_TYPE":0,"CLASSIFICATION_TYPE":"U","NORAD_CAT_ID":60950,"ELEMENT_SET_NO":999,"REV_AT_EPOCH":8424,"BSTAR":0.00046453388,"MEAN_MOTION_DOT":0.00011154,"MEAN_MOTION_DDOT":0},{"OBJECT_NAME":"BANDWAGON-4 OBJECT Q","OBJECT_ID":"2025-248Q","EPOCH":"2026-03-08T23:44:19.819392","MEAN_MOTION":15.23978167,"ECCENTRICITY":0.00112804,"INCLINATION":45.4076,"RA_OF_ASC_NODE":295.4821,"ARG_OF_PERICENTER":209.4727,"MEAN_ANOMALY":150.5526,"EPHEMERIS_TYPE":0,"CLASSIFICATION_TYPE":"U","NORAD_CAT_ID":66307,"ELEMENT_SET_NO":999,"REV_AT_EPOCH":1930,"BSTAR":0.0009224217,"MEAN_MOTION_DOT":0.00022547,"MEAN_MOTION_DDOT":0}]
