YAOGAN-43 02F           
1 60950U 24156F   26068.54203956  .00011154  00000+0  46453-3 0  9990
2 60950  34.9922 104.6026 0001164 214.3893 145.6747 15.22951134 84247
BANDWAGON-4 OBJECT Q    
1 66307U 25248Q   26067.98911828  .00022547  00000+0  92242-3 0  9991
2 66307  45.4076 295.4821 0011280 209.4727 150.5526 15.23978167 19300
